H1 CPF 01  gfz 2021 02 24 13  5552 terrasarx 
H2 0702601  6201 31698    2021 02 24 12 59 42 2021 03 01 00 00 42   120 1 1  0 0 0
H9
10 0 59270  10062.000000  0    4572587.485   5153714.477     17453.602
10 0 59270  10182.000000  0    4666799.697   4992195.728   -885290.496
10 0 59270  10302.000000  0    4675923.980   4742598.859  -1772468.404
10 0 59270  10422.000000  0    4598372.566   4410847.973  -2628502.266
10 0 59270  10542.000000  0    4434197.393   4004317.406  -3438390.617
10 0 59270  10662.000000  0    4185105.268   3531665.607  -4187974.711
10 0 59270  10782.000000  0    3854439.752   3002646.590  -4864184.691
10 0 59270  10902.000000  0    3447132.047   2427904.471  -5455262.987
10 0 59270  11022.000000  0    2969621.117   1818756.025  -5950961.455
10 0 59270  11142.000000  0    2429745.532   1186965.765  -6342708.693
10 0 59270  11262.000000  0    1836610.035    544519.168  -6623746.150
10 0 59270  11382.000000  0    1200431.153    -96601.324  -6789233.194
10 0 59270  11502.000000  0     532362.360   -724635.519  -6836323.463
10 0 59270  11622.000000  0    -155699.430  -1328256.663  -6764207.105
10 0 59270  11742.000000  0    -851320.000  -1896769.606  -6574122.258
10 0 59270  11862.000000  0   -1541746.959  -2420295.783  -6269337.408
10 0 59270  11982.000000  0   -2214138.352  -2889942.808  -5855100.958
10 0 59270  12102.000000  0   -2855796.398  -3297954.656  -5338560.254
10 0 59270  12222.000000  0   -3454405.426  -3637842.406  -4728650.804
10 0 59270  12342.000000  0   -3998269.679  -3904492.104  -4035952.549
10 0 59270  12462.000000  0   -4476544.592  -4094246.475  -3272516.146
10 0 59270  12582.000000  0   -4879458.161  -4204959.543  -2451661.009
10 0 59270  12702.000000  0   -5198516.579  -4236021.799  -1587746.620
10 0 59270  12822.000000  0   -5426688.809  -4188354.544   -695921.576
10 0 59270  12942.000000  0   -5558565.338  -4064373.459    208145.218
10 0 59270  13062.000000  0   -5590486.845  -3867921.936   1108546.383
10 0 59270  13182.000000  0   -5520637.817  -3604174.691   1989425.676
10 0 59270  13302.000000  0   -5349102.039  -3279513.169   2835266.744
10 0 59270  13422.000000  0   -5077879.633  -2901377.671   3631174.184
10 0 59270  13542.000000  0   -4710865.436  -2478099.826   4363142.446
10 0 59270  13662.000000  0   -4253788.274  -2018718.616   5018305.811
10 0 59270  13782.000000  0   -3714114.739  -1532786.635   5585163.199
10 0 59270  13902.000000  0   -3100921.186  -1030171.288   6053777.463
10 0 59270  14022.000000  0   -2424734.398   -520853.283   6415946.601
10 0 59270  14142.000000  0   -1697343.821    -14727.036   6665341.315
10 0 59270  14262.000000  0    -931591.689    478590.433   6797607.980
10 0 59270  14382.000000  0    -141145.338    949940.506   6810439.786
10 0 59270  14502.000000  0     659746.383   1390792.252   6703614.401
10 0 59270  14622.000000  0    1456509.194   1793396.881   6478997.740
10 0 59270  14742.000000  0    2234507.801   2150924.067   6140512.735
10 0 59270  14862.000000  0    2979314.111   2457578.170   5694075.561
10 0 59270  14982.000000  0    3676977.041   2708693.799   5147498.780
10 0 59270  15102.000000  0    4314287.363   2900808.440   4510359.980
10 0 59270  15222.000000  0    4879031.918   3031710.918   3793839.792
10 0 59270  15342.000000  0    5360237.027   3100464.939   3010530.304
10 0 59270  15462.000000  0    5748389.712   3107404.168   2174211.692
10 0 59270  15582.000000  0    6035631.930   3054102.377   1299608.394
10 0 59270  15702.000000  0    6215925.976   2943317.783    402124.079
10 0 59270  15822.000000  0    6285183.495   2778911.661   -502438.351
10 0 59270  15942.000000  0    6241354.613   2565743.020  -1398164.249
10 0 59270  16062.000000  0    6084475.876   2309544.130  -2269314.094
10 0 59270  16182.000000  0    5816678.215   2016780.899  -3100607.113
10 0 59270  16302.000000  0    5442151.852   1694498.493  -3877494.138
10 0 59270  16422.000000  0    4967070.991   1350157.794  -4586413.794
10 0 59270  16542.000000  0    4399479.252    991467.088  -5215026.038
10 0 59270  16662.000000  0    3749142.412    626214.473  -5752419.229
10 0 59270  16782.000000  0    3027371.636    262103.356  -6189290.304
10 0 59270  16902.000000  0    2246819.720    -93405.181  -6518094.880
10 0 59270  17022.000000  0    1421256.936   -433240.505  -6733165.707
10 0 59270  17142.000000  0     565329.711   -750858.707  -6830801.535
10 0 59270  17262.000000  0    -305696.682  -1040364.651  -6809323.552
10 0 59270  17382.000000  0   -1176203.754  -1296617.780  -6669099.967
10 0 59270  17502.000000  0   -2030493.144  -1515321.174  -6412541.274
10 0 59270  17622.000000  0   -2853063.778  -1693092.447  -6044062.620
10 0 59270  17742.000000  0   -3628886.798  -1827515.271  -5570015.712
10 0 59270  17862.000000  0   -4343678.718  -1917172.084  -4998591.694
10 0 59270  17982.000000  0   -4984167.245  -1961656.003  -4339690.800
10 0 59270  18102.000000  0   -5538343.060  -1961561.733  -3604761.707
10 0 59270  18222.000000  0   -5995694.199  -1918455.713  -2806611.497
10 0 59270  18342.000000  0   -6347416.242  -1834825.186  -1959187.549
10 0 59270  18462.000000  0   -6586593.248  -1714007.050  -1077335.674
10 0 59270  18582.000000  0   -6708344.367  -1560098.154   -176537.842
10 0 59270  18702.000000  0   -6709931.939  -1377848.503    727365.136
10 0 59270  18822.000000  0   -6590826.914  -1172539.997   1618460.354
10 0 59270  18942.000000  0   -6352729.454   -949854.213   2481052.101
10 0 59270  19062.000000  0   -5999544.546   -715732.575   3299947.124
10 0 59270  19182.000000  0   -5537313.260   -476231.832   4060730.036
10 0 59270  19302.000000  0   -4974099.939   -237379.388   4750022.161
10 0 59270  19422.000000  0   -4319841.103     -5032.382   5355716.968
10 0 59270  19542.000000  0   -3586161.359    215257.246   5867190.889
10 0 59270  19662.000000  0   -2786157.609    418367.814   6275486.393
10 0 59270  19782.000000  0   -1934157.632    599720.127   6573462.997
10 0 59270  19902.000000  0   -1045458.301    755375.299   6755916.659
10 0 59270  20022.000000  0    -136048.153    882116.928   6819664.238
10 0 59270  20142.000000  0     777679.984    977515.346   6763594.803
10 0 59270  20262.000000  0    1679223.234   1039973.755   6588687.782
10 0 59270  20382.000000  0    2552265.654   1068755.290   6297996.984
10 0 59270  20502.000000  0    3380973.305   1063990.191   5896601.331
10 0 59270  20622.000000  0    4150284.007   1026663.286   5391521.108
10 0 59270  20742.000000  0    4846184.057    958582.076   4791600.762
10 0 59270  20862.000000  0    5455970.394    862325.554   4107361.742
10 0 59270  20982.000000  0    5968492.825    741175.406   3350821.891
10 0 59270  21102.000000  0    6374367.789    599030.687   2535284.541
10 0 59270  21222.000000  0    6666158.801    440306.854   1675103.736
10 0 59270  21342.000000  0    6838522.704    269822.770    785427.563
10 0 59270  21462.000000  0    6888312.964     92677.830   -118075.638
10 0 59270  21582.000000  0    6814640.330    -85877.910  -1019502.055
10 0 59270  21702.000000  0    6618886.717   -260576.891  -1903001.522
10 0 59270  21822.000000  0    6304673.240   -426267.010  -2753064.127
10 0 59270  21942.000000  0    5877784.018   -578041.445  -3554797.661
10 0 59270  22062.000000  0    5346048.131   -711361.548  -4294191.049
10 0 59270  22182.000000  0    4719182.789   -822169.401  -4958357.655
10 0 59270  22302.000000  0    4008603.996   -906987.697  -5535754.089
10 0 59270  22422.000000  0    3227208.995   -963006.153  -6016372.913
10 0 59270  22542.000000  0    2389134.615   -988152.050  -6391905.732
10 0 59270  22662.000000  0    1509498.014   -981142.322  -6655875.192
10 0 59270  22782.000000  0     604124.795   -941518.637  -6803735.887
10 0 59270  22902.000000  0    -310732.166   -869664.266  -6832944.710
10 0 59270  23022.000000  0   -1218678.260   -766801.926  -6742999.152
10 0 59270  23142.000000  0   -2103464.147   -634973.442  -6535445.527
10 0 59270  23262.000000  0   -2949270.286   -477000.782  -6213854.149
10 0 59270  23382.000000  0   -3740983.088   -296429.821  -5783764.318
10 0 59270  23502.000000  0   -4464463.378    -97456.914  -5252600.169
10 0 59270  23622.000000  0   -5106800.857    115160.470  -4629553.060
10 0 59270  23742.000000  0   -5656549.900    336207.141  -3925434.792
10 0 59270  23862.000000  0   -6103943.904    560127.381  -3152500.217
10 0 59270  23982.000000  0   -6441081.027    781152.498  -2324240.926
10 0 59270  24102.000000  0   -6662076.515    993436.604  -1455152.942
10 0 59270  24222.000000  0   -6763179.032   1191196.910   -560482.916
10 0 59270  24342.000000  0   -6742844.833   1368855.085    344045.727
10 0 59270  24462.000000  0   -6601766.050   1521175.896   1242515.755
10 0 59270  24582.000000  0   -6342856.327   1643400.568   2119104.145
10 0 59270  24702.000000  0   -5971191.315   1731370.605   2958370.144
10 0 59270  24822.000000  0   -5493904.943   1781638.347   3745535.961
10 0 59270  24942.000000  0   -4920044.273   1791561.547   4466752.721
10 0 59270  25062.000000  0   -4260388.549   1759380.161   5109346.123
10 0 59270  25182.000000  0   -3527237.753   1684273.705   5662038.160
10 0 59270  25302.000000  0   -2734175.567   1566398.055   6115142.724
10 0 59270  25422.000000  0   -1895809.762   1406901.276   6460731.700
10 0 59270  25542.000000  0   -1027496.698   1207917.005   6692767.015
10 0 59270  25662.000000  0    -145057.418    972536.808   6807198.801
10 0 59270  25782.000000  0     735510.215    704761.929   6802031.063
10 0 59270  25902.000000  0    1598320.338    409435.118   6677354.145
10 0 59270  26022.000000  0    2427884.266     92153.724   6435343.409
10 0 59270  26142.000000  0    3209388.154   -240835.264   6080224.952
10 0 59270  26262.000000  0    3928959.696   -582756.542   5618206.577
10 0 59270  26382.000000  0    4573917.950   -926442.061   5057374.770
10 0 59270  26502.000000  0    5133002.659  -1264478.920   4407559.558
99
